CUTE-1 (CO-55)          
1 27844U 03031E   25188.57469958  .00000242  00000+0  12439-3 0  9998
2 27844  98.6755 196.4865 0010883 104.5663 255.6723 14.24014089142629
CUBESAT XI-IV (CO-57)   
1 27848U 03031J   25188.46591105  .00000212  00000+0  11284-3 0  9994
2 27848  98.6782 196.3640 0010608 120.3514 239.8714 14.23346307142331
CUBESAT XI-V            
1 28895U 05043F   25187.92996559  .00001163  00000+0  19743-3 0  9998
2 28895  98.2530 332.6278 0013799 216.0600 143.9676 14.71084807 50962
CUTE-1.7+APD II (CO-65) 
1 32785U 08021C   25188.53817262  .00004377  00000+0  31549-3 0  9999
2 32785  97.7853 159.9135 0011069 114.9866 245.2510 15.04642123933283
CANX-2                  
1 32790U 08021H   25188.48647909  .00002179  00000+0  17137-3 0  9993
2 32790  97.8167 158.4570 0012886 116.0463 244.2090 15.01865284933003
SEEDS II (CO-66)        
1 32791U 08021J   25188.50302425  .00009569  00000+0  45710-3 0  9996
2 32791  97.7276 169.1784 0005661  81.2988 278.8886 15.19242285934734
SWISSCUBE               
1 35932U 09051B   25187.94989045  .00000736  00000+0  15876-3 0  9993
2 35932  98.4277  84.6952 0006266 196.7390 163.3604 14.61387674838717
BEESAT-1                
1 35933U 09051C   25188.62027240  .00000633  00000+0  13961-3 0  9999
2 35933  98.4206  85.6821 0004527 206.0812 154.0160 14.60795359838860
ITUPSAT1                
1 35935U 09051E   25188.59172941  .00000586  00000+0  13353-3 0  9998
2 35935  98.4300  85.1706 0006579 220.4106 139.6605 14.59589605838450
TISAT 1                 
1 36799U 10035E   25188.23155937  .00011220  00000+0  56848-3 0  9991
2 36799  98.0573 104.0166 0003748  34.3784 325.7689 15.17159254815168
AEROCUBE 4.5A           
1 38767U 12048K   25188.23527176  .00024212  00000+0  62040-3 0  9998
2 38767  64.6463 133.1232 0097913 268.5384  90.4530 15.34504156319066
STRAND-1                
1 39090U 13009E   25188.04309345  .00000231  00000+0  92656-4 0  9993
2 39090  98.3831  12.0184 0008764 174.5315 185.5969 14.36835102647498
BRITE-AUSTRIA           
1 39091U 13009F   25188.47636627  .00000158  00000+0  68682-4 0  9997
2 39091  98.3888  11.6900 0010121 182.6222 177.4913 14.36321664647569
NEE-01 PEGASO           
1 39151U 13018B   25187.89998035  .00002451  00000+0  25395-3 0  9994
2 39151  98.0760 317.3677 0012610 215.2683 144.7701 14.90948021659217
POPACS 1                
1 39268U 13055D   25187.91286106  .00037145 -29384-6  31329-3 0  9992
2 39268  80.9697  53.1165 0227563 249.1020 108.5730 15.42902516618849
POPACS 2                
1 39269U 13055E   25186.94913711  .00010374  00000+0  20320-3 0  9994
2 39269  80.9949 176.1527 0473825 214.1270 142.8636 14.76381972611865
POPACS 3                
1 39270U 13055F   25188.12981272  .00008411  00000+0  21032-3 0  9995
2 39270  81.0036 241.1239 0582276  35.2771 328.5532 14.48499732588479
ZACUBE-1 (TSHEPISOSAT)  
1 39417U 13066B   25187.92866057  .00003133  00000+0  27344-3 0  9998
2 39417  97.7799 144.8022 0043145 322.3892  37.4314 14.96869509629007
WNISAT-1                
1 39423U 13066H   25187.99262445  .00000658  00000+0  13081-3 0  9995
2 39423  97.6795 357.7656 0164134 238.8223 119.6797 14.57135882616447
TRITON-1                
1 39427U 13066M   25188.61240811  .00001675  00000+0  21719-3 0  9999
2 39427  97.8353 101.6780 0092646 275.6592  83.4061 14.79203256623101
GOMX-1                  
1 39430U 13066Q   25188.57475181  .00001606  00000+0  25398-3 0  9999
2 39430  97.6812  45.5179 0133785 102.6730 258.9470 14.67730121619330
CUBEBUG-2 (LO-74)       
1 39440U 13066AA  25188.61419272  .00002593  00000+0  26426-3 0  9993
2 39440  97.8499 132.9836 0063564  87.6180 273.2313 14.90085569625612
NEE-02 KRYSAOR          
1 39441U 13066AB  25187.81830868  .00001585  00000+0  18677-3 0  9992
2 39441  97.8559 125.7749 0070136 120.4262 240.3907 14.84447999624922
FUNCUBE-1 (AO-73)       
1 39444U 13066AE  25188.18481637  .00006443  00000+0  47938-3 0  9992
2 39444  97.7803 150.2089 0041029 293.9192  65.7738 15.02640414627734
UWE-3                   
1 39446U 13066AG  25187.81417885  .00004306  00000+0  40745-3 0  9992
2 39446  97.8243 138.5896 0053931  30.5616 329.8727 14.93086730625971
BRITE-CA1 (TORONTO)     
1 40020U 14033L   25188.24505354  .00000614  00000+0  10221-3 0  9998
2 40020  97.9290 319.7461 0078794 301.6128  57.7407 14.71663596591464
DUCHIFAT-1              
1 40021U 14033M   25188.59945630  .00016509  00000+0  57873-3 0  9996
2 40021  98.0941 205.3903 0007977 206.3654 153.7179 15.29520920602600
NANOSATC-BR1            
1 40024U 14033Q   25188.54270234  .00009573  00000+0  46221-3 0  9993
2 40024  98.0902 188.4203 0002965 310.6704  49.4271 15.18899991601452
QB50P1                  
1 40025U 14033R   25188.49433110  .00006129  00000+0  37251-3 0  9999
2 40025  98.0834 172.6464 0009157 329.3921  30.6772 15.10840919600858
QB50P2                  
1 40032U 14033Y   25188.37003682  .00004766  00000+0  30877-3 0  9993
2 40032  98.0439 161.1566 0006642 265.2610  94.7859 15.08639595600560
PERSEUS-M2              
1 40037U 14033AD  25188.57018816  .00001489  00000+0  14577-3 0  9993
2 40037  97.9560 128.4733 0012414   8.9719 351.1719 14.93814116599307
PERSEUS-M1              
1 40039U 14033AF  25187.75282899  .00001528  00000+0  14946-3 0  9992
2 40039  97.9295 122.5096 0012248  10.4817 349.6655 14.93802268599039
POLYITAN-1              
1 40042U 14033AJ  25188.49744118  .00009620  00000+0  46005-3 0  9997
2 40042  98.1027 180.8140 0007735 260.9828  99.0529 15.19211662601025
TIGRISAT                
1 40043U 14033AK  25187.92801373  .00001863  00000+0  22993-3 0  9993
2 40043  97.7378 342.3339 0052592 125.6929 234.9196 14.83061493594717
AEROCUBE 6A             
1 40045U 14033AM  25187.95293300  .00005032  00000+0  48555-3 0  9997
2 40045  97.6946 355.6027 0044429  89.2584 271.3726 14.92565475595020
AEROCUBE 6B             
1 40046U 14033AN  25187.99278865  .00004502  00000+0  42272-3 0  9992
2 40046  97.6917 354.8124 0042748  82.5514 278.0560 14.93754100595126
CANX-4                  
1 40055U 14034C   25188.53504321  .00000761  00000+0  10740-3 0  9991
2 40055  98.3598  45.4091 0013898  42.2767 317.9512 14.80270855593520
CANX-5                  
1 40056U 14034D   25188.60477920  .00000759  00000+0  10714-3 0  9992
2 40056  98.3601  45.5053 0013890  42.1926 318.0351 14.80284778584345
UKUBE-1                 
1 40074U 14037F   25188.47857951  .00005223  00000+0  36512-3 0  9991
2 40074  98.3938 153.2319 0000852 154.6935 205.4332 15.05805196596547
BRITE-PL2 (HEWELIUSZ)   
1 40119U 14049B   25187.83784821  .00001824  00000+0  18234-3 0  9992
2 40119  97.8921 293.1353 0014885 169.0676 191.0869 14.92655621589894
AEROCUBE 5C             
1 40965U 15058B   25188.55576089  .00002638  00000+0  23647-3 0  9995
2 40965  64.7678 252.6138 0160782 191.5084 168.2337 14.88726834314293
AEROCUBE 7              
1 40966U 15058C   25188.49301003  .00003213  00000+0  26669-3 0  9998
2 40966  64.7633 241.5622 0152333 191.5032 168.2588 14.92053001314467
FOX-1A (AO-85)          
1 40967U 15058D   25188.55592218  .00002981  00000+0  27153-3 0  9996
2 40967  64.7761 267.8498 0157046 186.3768 173.5350 14.88229242 62234
SINOD-D 1               
1 40968U 15058E   25188.56626948  .00003767  00000+0  31468-3 0  9993
2 40968  64.7757 255.1103 0146554 185.3750 174.5799 14.92107300 65174
SNAP-3 ALICE            
1 40970U 15058G   25188.14377460  .00018434  00000+0  74591-3 0  9993
2 40970  64.7632 175.1771 0080432 187.0381 172.9625 15.21819816 63861
LMRST-SAT               
1 40971U 15058H   25188.63397752  .00002640  00000+0  24248-3 0  9990
2 40971  64.7761 263.3730 0159432 187.8360 172.0259 14.87959952 62244
SNAP-3 EDDIE            
1 40972U 15058J   25188.18440705  .00017205  00000+0  68039-3 0  9997
2 40972  64.7555 167.5190 0085543 189.0134 170.9463 15.22224952 65988
PROPCUBE 3              
1 40973U 15058K   25188.50728239  .00003055  00000+0  26070-3 0  9992
2 40973  64.7687 246.8568 0153911 189.8515 169.9573 14.90962084 63359
BISONSAT                
1 40974U 15058L   25188.15882339  .00006786  00000+0  40462-3 0  9991
2 40974  64.7613 200.8628 0116038 188.6452 171.2673 15.06436589 63476
SNAP-3 JIMI             
1 40975U 15058M   25188.18978681  .00004641  00000+0  34287-3 0  9997
2 40975  64.7654 227.1337 0138371 189.2131 170.6444 14.97108916 62484
PROPCUBE 1 (FLORA)      
1 40976U 15058N   25188.61783940  .00003037  00000+0  28649-3 0  9991
2 40976  64.7758 281.1592 0158995 189.6188 170.1871 14.86652326 64997
SINOD-D 3               
1 40977U 15058P   25188.58704477  .00003916  00000+0  33922-3 0  9992
2 40977  64.7735 269.0881 0148714 188.9855 170.8592 14.90452209 63337
HORYU-4                 
1 41340U 16012D   25187.68003615  .00018680  00000+0  48234-3 0  9990
2 41340  30.9974 309.5549 0006424 349.1361  10.9146 15.37864928516965
RAVAN                   
1 41849U 16067B   25188.56087857  .00011129  00000+0  37433-3 0  9992
2 41849  98.0424  39.8872 0010127 133.1600 227.0487 15.30951394474620
CELTEE 1                
1 41850U 16067C   25188.50832029  .00004176  00000+0  22860-3 0  9999
2 41850  98.1050  26.9049 0001325  48.0399 312.0944 15.14852857473617
OPTICUBE 04             
1 41851U 16067D   25188.50208016  .00001441  00000+0  99703-4 0  9996
2 41851  98.0925  17.7300 0015992 196.8348 163.2349 15.07367252473209
AEROCUBE 8D             
1 41852U 16067E   25188.54440820  .00004943  00000+0  24741-3 0  9991
2 41852  98.1086  28.2658 0002869 227.1732 132.9259 15.17926853473679
AEROCUBE 8C             
1 41853U 16067F   25188.54781862  .00005510  00000+0  27415-3 0  9998
2 41853  98.0934  26.0124 0006648 157.3707 202.7819 15.18061133473669
PROMETHEUS 2-1          
1 41854U 16067G   25188.56793500  .00040694  00000+0  70854-3 0  9990
2 41854  98.0743  45.2346 0007455 141.9033 218.2745 15.50633331474746
